ONEWEB-0525             
1 54143U 22138AG  25288.57645645  .00000273  00000+0  65055-3 0  9995
2 54143  87.9275 353.6218 0002140 107.7749 252.3618 13.19722650144560
ONEWEB-0526             
1 54144U 22138AH  25288.23053968  .00000070  00000+0  14359-3 0  9996
2 54144  87.9274 353.6771 0001887 102.3746 257.7598 13.19723763144493
ONEWEB-0529             
1 54145U 22138AJ  25288.23369519 -.00000237  00000+0 -62399-3 0  9993
2 54145  87.9256 353.7127 0001881 106.7731 253.3608 13.19726048144512
ONEWEB-0531             
1 54146U 22138AK  25288.84110014 -.00000096  00000+0 -26821-3 0  9998
2 54146  87.9213 323.1652 0002673  83.2542 276.8895 13.20769940147059
ONEWEB-0535             
1 54147U 22138AL  25288.64595699 -.00000036  00000+0 -12119-3 0  9992
2 54147  87.9276 353.5902 0001998  89.2921 270.8441 13.19724844144588
ONEWEB-0536             
1 54148U 22138AM  25288.82845521 -.00000250  00000+0 -64609-3 0  9994
2 54148  87.9212 323.2146 0002887  85.5891 274.5572 13.20770289147042
ONEWEB-0527             
1 54642U 22166A   25288.59595111  .00000058  00000+0  10960-3 0  9990
2 54642  87.9168 292.8043 0001931  92.8194 267.3162 13.21887227139222
ONEWEB-0528             
1 54643U 22166B   25288.60240412  .00000033  00000+0  47807-4 0  9998
2 54643  87.9171 292.8063 0001911  93.5990 266.5362 13.21860843139238
ONEWEB-0539             
1 54644U 22166C   25288.56382517  .00000136  00000+0  29890-3 0  9992
2 54644  87.9166 292.7805 0001589  89.6977 270.4339 13.21721805139229
ONEWEB-0540             
1 54645U 22166D   25288.57039897  .00000054  00000+0  98605-4 0  9994
2 54645  87.9168 292.8172 0001655  88.1747 271.9576 13.21702015139213
ONEWEB-0542             
1 54646U 22166E   25288.57351420  .00002348  00000+0  56645-2 0  9998
2 54646  87.9166 292.7762 0001564  81.6818 278.4494 13.21674677139226
ONEWEB-0545             
1 54647U 22166F   25288.61530535  .00000024  00000+0  27284-4 0  9998
2 54647  87.9168 292.7871 0001426  85.1516 274.9781 13.21812046139191
ONEWEB-0580             
1 54648U 22166G   25288.58876912  .00000083  00000+0  17057-3 0  9998
2 54648  87.9168 292.7909 0001662  80.4951 279.6371 13.21771786139234
ONEWEB-0582             
1 54649U 22166H   25288.55575541 -.00000123  00000+0 -33079-3 0  9999
2 54649  87.9167 292.7905 0001581  76.8904 283.2407 13.21752919139202
ONEWEB-0583             
1 54650U 22166J   25288.56703908  .00000069  00000+0  13677-3 0  9991
2 54650  87.9166 292.8139 0001740  89.6801 270.4533 13.21708982139218
ONEWEB-0584             
1 54651U 22166K   25288.58714088  .00000085  00000+0  17455-3 0  9991
2 54651  87.9169 292.7948 0001770  78.5930 281.5403 13.21775371139206
ONEWEB-0585             
1 54652U 22166L   25288.61209874  .00000039  00000+0  63732-4 0  9997
2 54652  87.9168 292.7752 0002007  92.4079 267.7285 13.21825799139217
