[{"OBJECT_NAME":"ONEWEB-0525","OBJECT_ID":"2022-138AG","EPOCH":"2025-10-15T13:50:05.837280","MEAN_MOTION":13.1972265,"ECCENTRICITY":0.000214,"INCLINATION":87.9275,"RA_OF_ASC_NODE":353.6218,"ARG_OF_PERICENTER":107.7749,"MEAN_ANOMALY":252.3618,"EPHEMERIS_TYPE":0,"CLASSIFICATION_TYPE":"U","NORAD_CAT_ID":54143,"ELEMENT_SET_NO":999,"REV_AT_EPOCH":14456,"BSTAR":0.00065055,"MEAN_MOTION_DOT":2.73e-6,"MEAN_MOTION_DDOT":0},{"OBJECT_NAME":"ONEWEB-0526","OBJECT_ID":"2022-138AH","EPOCH":"2025-10-15T05:31:58.628352","MEAN_MOTION":13.19723763,"ECCENTRICITY":0.00018877,"INCLINATION":87.9274,"RA_OF_ASC_NODE":353.6771,"ARG_OF_PERICENTER":102.3746,"MEAN_ANOMALY":257.7598,"EPHEMERIS_TYPE":0,"CLASSIFICATION_TYPE":"U","NORAD_CAT_ID":54144,"ELEMENT_SET_NO":999,"REV_AT_EPOCH":14449,"BSTAR":0.00014358794,"MEAN_MOTION_DOT":7.0e-7,"MEAN_MOTION_DDOT":0},{"OBJECT_NAME":"ONEWEB-0529","OBJECT_ID":"2022-138AJ","EPOCH":"2025-10-15T05:36:31.264416","MEAN_MOTION":13.19726048,"ECCENTRICITY":0.00018819,"INCLINATION":87.9256,"RA_OF_ASC_NODE":353.7127,"ARG_OF_PERICENTER":106.7731,"MEAN_ANOMALY":253.3608,"EPHEMERIS_TYPE":0,"CLASSIFICATION_TYPE":"U","NORAD_CAT_ID":54145,"ELEMENT_SET_NO":999,"REV_AT_EPOCH":14451,"BSTAR":-0.00062398562,"MEAN_MOTION_DOT":-2.37e-6,"MEAN_MOTION_DDOT":0},{"OBJECT_NAME":"ONEWEB-0531","OBJECT_ID":"2022-138AK","EPOCH":"2025-10-15T20:11:11.052096","MEAN_MOTION":13.2076994,"ECCENTRICITY":0.0002673,"INCLINATION":87.9213,"RA_OF_ASC_NODE":323.1652,"ARG_OF_PERICENTER":83.2542,"MEAN_ANOMALY":276.8895,"EPHEMERIS_TYPE":0,"CLASSIFICATION_TYPE":"U","NORAD_CAT_ID":54146,"ELEMENT_SET_NO":999,"REV_AT_EPOCH":14705,"BSTAR":-0.00026821,"MEAN_MOTION_DOT":-9.6e-7,"MEAN_MOTION_DDOT":0},{"OBJECT_NAME":"ONEWEB-0535","OBJECT_ID":"2022-138AL","EPOCH":"2025-10-15T15:30:10.683936","MEAN_MOTION":13.19724844,"ECCENTRICITY":0.0001998,"INCLINATION":87.9276,"RA_OF_ASC_NODE":353.5902,"ARG_OF_PERICENTER":89.2921,"MEAN_ANOMALY":270.8441,"EPHEMERIS_TYPE":0,"CLASSIFICATION_TYPE":"U","NORAD_CAT_ID":54147,"ELEMENT_SET_NO":999,"REV_AT_EPOCH":14458,"BSTAR":-0.00012119,"MEAN_MOTION_DOT":-3.6e-7,"MEAN_MOTION_DDOT":0},{"OBJECT_NAME":"ONEWEB-0536","OBJECT_ID":"2022-138AM","EPOCH":"2025-10-15T19:52:58.530144","MEAN_MOTION":13.20770289,"ECCENTRICITY":0.0002887,"INCLINATION":87.9212,"RA_OF_ASC_NODE":323.2146,"ARG_OF_PERICENTER":85.5891,"MEAN_ANOMALY":274.5572,"EPHEMERIS_TYPE":0,"CLASSIFICATION_TYPE":"U","NORAD_CAT_ID":54148,"ELEMENT_SET_NO":999,"REV_AT_EPOCH":14704,"BSTAR":-0.00064609,"MEAN_MOTION_DOT":-2.5e-6,"MEAN_MOTION_DDOT":0},{"OBJECT_NAME":"ONEWEB-0527","OBJECT_ID":"2022-166A","EPOCH":"2025-10-15T14:18:10.175904","MEAN_MOTION":13.21887227,"ECCENTRICITY":0.00019314,"INCLINATION":87.9168,"RA_OF_ASC_NODE":292.8043,"ARG_OF_PERICENTER":92.8194,"MEAN_ANOMALY":267.3162,"EPHEMERIS_TYPE":0,"CLASSIFICATION_TYPE":"U","NORAD_CAT_ID":54642,"ELEMENT_SET_NO":999,"REV_AT_EPOCH":13922,"BSTAR":0.00010960289,"MEAN_MOTION_DOT":5.8e-7,"MEAN_MOTION_DDOT":0},{"OBJECT_NAME":"ONEWEB-0528","OBJECT_ID":"2022-166B","EPOCH":"2025-10-15T14:27:27.715968","MEAN_MOTION":13.21860843,"ECCENTRICITY":0.00019113,"INCLINATION":87.9171,"RA_OF_ASC_NODE":292.8063,"ARG_OF_PERICENTER":93.599,"MEAN_ANOMALY":266.5362,"EPHEMERIS_TYPE":0,"CLASSIFICATION_TYPE":"U","NORAD_CAT_ID":54643,"ELEMENT_SET_NO":999,"REV_AT_EPOCH":13923,"BSTAR":4.7807193e-5,"MEAN_MOTION_DOT":3.3e-7,"MEAN_MOTION_DDOT":0},{"OBJECT_NAME":"ONEWEB-0539","OBJECT_ID":"2022-166C","EPOCH":"2025-10-15T13:31:54.494688","MEAN_MOTION":13.21721805,"ECCENTRICITY":0.00015898,"INCLINATION":87.9166,"RA_OF_ASC_NODE":292.7805,"ARG_OF_PERICENTER":89.6977,"MEAN_ANOMALY":270.4339,"EPHEMERIS_TYPE":0,"CLASSIFICATION_TYPE":"U","NORAD_CAT_ID":54644,"ELEMENT_SET_NO":999,"REV_AT_EPOCH":13922,"BSTAR":0.00029890005,"MEAN_MOTION_DOT":1.36e-6,"MEAN_MOTION_DDOT":0},{"OBJECT_NAME":"ONEWEB-0540","OBJECT_ID":"2022-166D","EPOCH":"2025-10-15T13:41:22.471008","MEAN_MOTION":13.21702015,"ECCENTRICITY":0.00016555,"INCLINATION":87.9168,"RA_OF_ASC_NODE":292.8172,"ARG_OF_PERICENTER":88.1747,"MEAN_ANOMALY":271.9576,"EPHEMERIS_TYPE":0,"CLASSIFICATION_TYPE":"U","NORAD_CAT_ID":54645,"ELEMENT_SET_NO":999,"REV_AT_EPOCH":13921,"BSTAR":9.8604962e-5,"MEAN_MOTION_DOT":5.4e-7,"MEAN_MOTION_DDOT":0},{"OBJECT_NAME":"ONEWEB-0542","OBJECT_ID":"2022-166E","EPOCH":"2025-10-15T13:45:51.626880","MEAN_MOTION":13.21674677,"ECCENTRICITY":0.00015643,"INCLINATION":87.9166,"RA_OF_ASC_NODE":292.7762,"ARG_OF_PERICENTER":81.6818,"MEAN_ANOMALY":278.4494,"EPHEMERIS_TYPE":0,"CLASSIFICATION_TYPE":"U","NORAD_CAT_ID":54646,"ELEMENT_SET_NO":999,"REV_AT_EPOCH":13922,"BSTAR":0.0056644627,"MEAN_MOTION_DOT":2.348e-5,"MEAN_MOTION_DDOT":0},{"OBJECT_NAME":"ONEWEB-0545","OBJECT_ID":"2022-166F","EPOCH":"2025-10-15T14:46:02.382240","MEAN_MOTION":13.21812046,"ECCENTRICITY":0.00014263,"INCLINATION":87.9168,"RA_OF_ASC_NODE":292.7871,"ARG_OF_PERICENTER":85.1516,"MEAN_ANOMALY":274.9781,"EPHEMERIS_TYPE":0,"CLASSIFICATION_TYPE":"U","NORAD_CAT_ID":54647,"ELEMENT_SET_NO":999,"REV_AT_EPOCH":13919,"BSTAR":2.7284039e-5,"MEAN_MOTION_DOT":2.4e-7,"MEAN_MOTION_DDOT":0},{"OBJECT_NAME":"ONEWEB-0580","OBJECT_ID":"2022-166G","EPOCH":"2025-10-15T14:07:49.651968","MEAN_MOTION":13.21771786,"ECCENTRICITY":0.00016623,"INCLINATION":87.9168,"RA_OF_ASC_NODE":292.7909,"ARG_OF_PERICENTER":80.4951,"MEAN_ANOMALY":279.6371,"EPHEMERIS_TYPE":0,"CLASSIFICATION_TYPE":"U","NORAD_CAT_ID":54648,"ELEMENT_SET_NO":999,"REV_AT_EPOCH":13923,"BSTAR":0.00017056571,"MEAN_MOTION_DOT":8.3e-7,"MEAN_MOTION_DDOT":0},{"OBJECT_NAME":"ONEWEB-0582","OBJECT_ID":"2022-166H","EPOCH":"2025-10-15T13:20:17.267424","MEAN_MOTION":13.21752919,"ECCENTRICITY":0.00015819,"INCLINATION":87.9167,"RA_OF_ASC_NODE":292.7905,"ARG_OF_PERICENTER":76.8904,"MEAN_ANOMALY":283.2407,"EPHEMERIS_TYPE":0,"CLASSIFICATION_TYPE":"U","NORAD_CAT_ID":54649,"ELEMENT_SET_NO":999,"REV_AT_EPOCH":13920,"BSTAR":-0.00033079139,"MEAN_MOTION_DOT":-1.23e-6,"MEAN_MOTION_DDOT":0},{"OBJECT_NAME":"ONEWEB-0583","OBJECT_ID":"2022-166J","EPOCH":"2025-10-15T13:36:32.176512","MEAN_MOTION":13.21708982,"ECCENTRICITY":0.00017406,"INCLINATION":87.9166,"RA_OF_ASC_NODE":292.8139,"ARG_OF_PERICENTER":89.6801,"MEAN_ANOMALY":270.4533,"EPHEMERIS_TYPE":0,"CLASSIFICATION_TYPE":"U","NORAD_CAT_ID":54650,"ELEMENT_SET_NO":999,"REV_AT_EPOCH":13921,"BSTAR":0.00013676821,"MEAN_MOTION_DOT":6.9e-7,"MEAN_MOTION_DDOT":0},{"OBJECT_NAME":"ONEWEB-0584","OBJECT_ID":"2022-166K","EPOCH":"2025-10-15T14:05:28.972032","MEAN_MOTION":13.21775371,"ECCENTRICITY":0.00017701,"INCLINATION":87.9169,"RA_OF_ASC_NODE":292.7948,"ARG_OF_PERICENTER":78.593,"MEAN_ANOMALY":281.5403,"EPHEMERIS_TYPE":0,"CLASSIFICATION_TYPE":"U","NORAD_CAT_ID":54651,"ELEMENT_SET_NO":999,"REV_AT_EPOCH":13920,"BSTAR":0.00017455285,"MEAN_MOTION_DOT":8.5e-7,"MEAN_MOTION_DDOT":0},{"OBJECT_NAME":"ONEWEB-0585","OBJECT_ID":"2022-166L","EPOCH":"2025-10-15T14:41:25.331136","MEAN_MOTION":13.21825799,"ECCENTRICITY":0.00020071,"INCLINATION":87.9168,"RA_OF_ASC_NODE":292.7752,"ARG_OF_PERICENTER":92.4079,"MEAN_ANOMALY":267.7285,"EPHEMERIS_TYPE":0,"CLASSIFICATION_TYPE":"U","NORAD_CAT_ID":54652,"ELEMENT_SET_NO":999,"REV_AT_EPOCH":13921,"BSTAR":6.3732377e-5,"MEAN_MOTION_DOT":3.9e-7,"MEAN_MOTION_DDOT":0}]
